[{"OBJECT_NAME":"ONEWEB-0721","OBJECT_ID":"2023-068R","EPOCH":"2025-12-31T02:24:06.854112","MEAN_MOTION":13.22455196,"ECCENTRICITY":0.00014326,"INCLINATION":86.6813,"RA_OF_ASC_NODE":139.1452,"ARG_OF_PERICENTER":102.6265,"MEAN_ANOMALY":257.5029,"EPHEMERIS_TYPE":0,"CLASSIFICATION_TYPE":"U","NORAD_CAT_ID":56725,"ELEMENT_SET_NO":999,"REV_AT_EPOCH":13572,"BSTAR":2.8508364e-5,"MEAN_MOTION_DOT":2.6e-7,"MEAN_MOTION_DDOT":0},{"OBJECT_NAME":"ONEWEB-0015","OBJECT_ID":"2024-188A","EPOCH":"2025-12-31T03:37:58.897632","MEAN_MOTION":13.11416851,"ECCENTRICITY":0.00023422,"INCLINATION":87.883,"RA_OF_ASC_NODE":54.557,"ARG_OF_PERICENTER":106.5289,"MEAN_ANOMALY":253.6096,"EPHEMERIS_TYPE":0,"CLASSIFICATION_TYPE":"U","NORAD_CAT_ID":61594,"ELEMENT_SET_NO":999,"REV_AT_EPOCH":6243,"BSTAR":0.00028479411,"MEAN_MOTION_DOT":1.14e-6,"MEAN_MOTION_DDOT":0},{"OBJECT_NAME":"ONEWEB-0687","OBJECT_ID":"2024-188B","EPOCH":"2025-12-31T02:35:40.307424","MEAN_MOTION":13.17648723,"ECCENTRICITY":0.00019653,"INCLINATION":87.9082,"RA_OF_ASC_NODE":39.3103,"ARG_OF_PERICENTER":113.745,"MEAN_ANOMALY":246.3888,"EPHEMERIS_TYPE":0,"CLASSIFICATION_TYPE":"U","NORAD_CAT_ID":61595,"ELEMENT_SET_NO":999,"REV_AT_EPOCH":6376,"BSTAR":6.8356623e-5,"MEAN_MOTION_DOT":3.9e-7,"MEAN_MOTION_DDOT":0},{"OBJECT_NAME":"ONEWEB-0688","OBJECT_ID":"2024-188C","EPOCH":"2025-12-31T03:16:59.110464","MEAN_MOTION":13.17649056,"ECCENTRICITY":0.00030114,"INCLINATION":87.908,"RA_OF_ASC_NODE":39.3048,"ARG_OF_PERICENTER":108.2638,"MEAN_ANOMALY":251.8822,"EPHEMERIS_TYPE":0,"CLASSIFICATION_TYPE":"U","NORAD_CAT_ID":61596,"ELEMENT_SET_NO":999,"REV_AT_EPOCH":6376,"BSTAR":4.3223737e-5,"MEAN_MOTION_DOT":3.0e-7,"MEAN_MOTION_DDOT":0},{"OBJECT_NAME":"ONEWEB-0689","OBJECT_ID":"2024-188D","EPOCH":"2025-12-31T04:26:49.196832","MEAN_MOTION":13.11418627,"ECCENTRICITY":0.00016528,"INCLINATION":87.8836,"RA_OF_ASC_NODE":54.4841,"ARG_OF_PERICENTER":110.4821,"MEAN_ANOMALY":249.6484,"EPHEMERIS_TYPE":0,"CLASSIFICATION_TYPE":"U","NORAD_CAT_ID":61597,"ELEMENT_SET_NO":999,"REV_AT_EPOCH":6243,"BSTAR":-0.00051892756,"MEAN_MOTION_DOT":-1.71e-6,"MEAN_MOTION_DDOT":0},{"OBJECT_NAME":"ONEWEB-0690","OBJECT_ID":"2024-188E","EPOCH":"2025-12-31T04:41:28.747968","MEAN_MOTION":13.11417234,"ECCENTRICITY":0.00019857,"INCLINATION":87.8852,"RA_OF_ASC_NODE":54.4994,"ARG_OF_PERICENTER":78.5371,"MEAN_ANOMALY":281.598,"EPHEMERIS_TYPE":0,"CLASSIFICATION_TYPE":"U","NORAD_CAT_ID":61598,"ELEMENT_SET_NO":999,"REV_AT_EPOCH":6261,"BSTAR":0.00068010777,"MEAN_MOTION_DOT":2.54e-6,"MEAN_MOTION_DDOT":0},{"OBJECT_NAME":"ONEWEB-0691","OBJECT_ID":"2024-188F","EPOCH":"2025-12-31T02:44:16.985472","MEAN_MOTION":13.11417442,"ECCENTRICITY":0.0002174,"INCLINATION":87.8851,"RA_OF_ASC_NODE":54.4131,"ARG_OF_PERICENTER":106.7121,"MEAN_ANOMALY":253.4246,"EPHEMERIS_TYPE":0,"CLASSIFICATION_TYPE":"U","NORAD_CAT_ID":61599,"ELEMENT_SET_NO":999,"REV_AT_EPOCH":6245,"BSTAR":0.00039033648,"MEAN_MOTION_DOT":1.51e-6,"MEAN_MOTION_DDOT":0},{"OBJECT_NAME":"ONEWEB-0692","OBJECT_ID":"2024-188G","EPOCH":"2025-12-31T03:13:34.922208","MEAN_MOTION":13.11416393,"ECCENTRICITY":8.342e-5,"INCLINATION":87.8832,"RA_OF_ASC_NODE":54.5538,"ARG_OF_PERICENTER":101.6585,"MEAN_ANOMALY":258.4636,"EPHEMERIS_TYPE":0,"CLASSIFICATION_TYPE":"U","NORAD_CAT_ID":61600,"ELEMENT_SET_NO":999,"REV_AT_EPOCH":6244,"BSTAR":0.001859929,"MEAN_MOTION_DOT":6.72e-6,"MEAN_MOTION_DDOT":0},{"OBJECT_NAME":"ONEWEB-0693","OBJECT_ID":"2024-188H","EPOCH":"2025-12-31T03:33:58.755744","MEAN_MOTION":13.17650677,"ECCENTRICITY":0.00023661,"INCLINATION":87.9084,"RA_OF_ASC_NODE":39.3227,"ARG_OF_PERICENTER":79.3832,"MEAN_ANOMALY":280.7566,"EPHEMERIS_TYPE":0,"CLASSIFICATION_TYPE":"U","NORAD_CAT_ID":61601,"ELEMENT_SET_NO":999,"REV_AT_EPOCH":6375,"BSTAR":9.1244809e-5,"MEAN_MOTION_DOT":4.8e-7,"MEAN_MOTION_DDOT":0},{"OBJECT_NAME":"ONEWEB-0695","OBJECT_ID":"2024-188J","EPOCH":"2025-12-31T04:29:15.676800","MEAN_MOTION":13.1141844,"ECCENTRICITY":0.0001375,"INCLINATION":87.884,"RA_OF_ASC_NODE":54.533,"ARG_OF_PERICENTER":114.2118,"MEAN_ANOMALY":245.9153,"EPHEMERIS_TYPE":0,"CLASSIFICATION_TYPE":"U","NORAD_CAT_ID":61602,"ELEMENT_SET_NO":999,"REV_AT_EPOCH":6244,"BSTAR":-0.00020454271,"MEAN_MOTION_DOT":-6.0e-7,"MEAN_MOTION_DDOT":0},{"OBJECT_NAME":"ONEWEB-0697","OBJECT_ID":"2024-188K","EPOCH":"2025-12-31T03:25:47.367840","MEAN_MOTION":13.11414737,"ECCENTRICITY":9.765e-5,"INCLINATION":87.8833,"RA_OF_ASC_NODE":54.5315,"ARG_OF_PERICENTER":97.7154,"MEAN_ANOMALY":262.4085,"EPHEMERIS_TYPE":0,"CLASSIFICATION_TYPE":"U","NORAD_CAT_ID":61603,"ELEMENT_SET_NO":999,"REV_AT_EPOCH":6242,"BSTAR":0.0012709597,"MEAN_MOTION_DOT":4.63e-6,"MEAN_MOTION_DDOT":0},{"OBJECT_NAME":"ONEWEB-0698","OBJECT_ID":"2024-188L","EPOCH":"2025-12-31T04:43:55.701408","MEAN_MOTION":13.1141661,"ECCENTRICITY":0.0001321,"INCLINATION":87.8837,"RA_OF_ASC_NODE":54.5359,"ARG_OF_PERICENTER":55.6436,"MEAN_ANOMALY":304.4817,"EPHEMERIS_TYPE":0,"CLASSIFICATION_TYPE":"U","NORAD_CAT_ID":61604,"ELEMENT_SET_NO":999,"REV_AT_EPOCH":6245,"BSTAR":0.00094924496,"MEAN_MOTION_DOT":3.49e-6,"MEAN_MOTION_DDOT":0},{"OBJECT_NAME":"ONEWEB-0699","OBJECT_ID":"2024-188M","EPOCH":"2025-12-31T05:29:45.802176","MEAN_MOTION":13.10377516,"ECCENTRICITY":0.00010317,"INCLINATION":87.8804,"RA_OF_ASC_NODE":69.7446,"ARG_OF_PERICENTER":96.1691,"MEAN_ANOMALY":263.9554,"EPHEMERIS_TYPE":0,"CLASSIFICATION_TYPE":"U","NORAD_CAT_ID":61605,"ELEMENT_SET_NO":999,"REV_AT_EPOCH":6131,"BSTAR":-0.00035181343,"MEAN_MOTION_DOT":-1.1e-6,"MEAN_MOTION_DDOT":0},{"OBJECT_NAME":"ONEWEB-0700","OBJECT_ID":"2024-188N","EPOCH":"2025-12-31T05:32:10.396032","MEAN_MOTION":13.10378032,"ECCENTRICITY":0.00012477,"INCLINATION":87.8815,"RA_OF_ASC_NODE":69.6315,"ARG_OF_PERICENTER":125.64,"MEAN_ANOMALY":234.4844,"EPHEMERIS_TYPE":0,"CLASSIFICATION_TYPE":"U","NORAD_CAT_ID":61606,"ELEMENT_SET_NO":999,"REV_AT_EPOCH":6130,"BSTAR":-0.00016643218,"MEAN_MOTION_DOT":-4.5e-7,"MEAN_MOTION_DDOT":0},{"OBJECT_NAME":"ONEWEB-0701","OBJECT_ID":"2024-188P","EPOCH":"2025-12-31T04:06:08.161920","MEAN_MOTION":13.10374737,"ECCENTRICITY":8.495e-5,"INCLINATION":87.8798,"RA_OF_ASC_NODE":69.7563,"ARG_OF_PERICENTER":93.4982,"MEAN_ANOMALY":266.6243,"EPHEMERIS_TYPE":0,"CLASSIFICATION_TYPE":"U","NORAD_CAT_ID":61607,"ELEMENT_SET_NO":999,"REV_AT_EPOCH":6130,"BSTAR":0.0019448332,"MEAN_MOTION_DOT":6.92e-6,"MEAN_MOTION_DDOT":0},{"OBJECT_NAME":"ONEWEB-0702","OBJECT_ID":"2024-188Q","EPOCH":"2025-12-31T03:59:56.738688","MEAN_MOTION":13.11417316,"ECCENTRICITY":7.695e-5,"INCLINATION":87.8821,"RA_OF_ASC_NODE":54.425,"ARG_OF_PERICENTER":118.0574,"MEAN_ANOMALY":242.0632,"EPHEMERIS_TYPE":0,"CLASSIFICATION_TYPE":"U","NORAD_CAT_ID":61608,"ELEMENT_SET_NO":999,"REV_AT_EPOCH":6246,"BSTAR":-0.0011383458,"MEAN_MOTION_DOT":-3.91e-6,"MEAN_MOTION_DDOT":0},{"OBJECT_NAME":"ONEWEB-0704","OBJECT_ID":"2024-188R","EPOCH":"2025-12-31T05:39:20.037312","MEAN_MOTION":13.10377354,"ECCENTRICITY":8.676e-5,"INCLINATION":87.8818,"RA_OF_ASC_NODE":69.7111,"ARG_OF_PERICENTER":126.5483,"MEAN_ANOMALY":233.5724,"EPHEMERIS_TYPE":0,"CLASSIFICATION_TYPE":"U","NORAD_CAT_ID":61609,"ELEMENT_SET_NO":999,"REV_AT_EPOCH":6129,"BSTAR":0.00034689767,"MEAN_MOTION_DOT":1.34e-6,"MEAN_MOTION_DDOT":0}]
