ONEWEB-0721             
1 56725U 23068R   25365.10007933  .00000026  00000+0  28508-4 0  9992
2 56725  86.6813 139.1452 0001432 102.6265 257.5029 13.22455196135722
ONEWEB-0015             
1 61594U 24188A   25365.15137613  .00000114  00000+0  28479-3 0  9994
2 61594  87.8830  54.5570 0002342 106.5289 253.6096 13.11416851 62436
ONEWEB-0687             
1 61595U 24188B   25365.10810541  .00000039  00000+0  68357-4 0  9994
2 61595  87.9082  39.3103 0001965 113.7450 246.3888 13.17648723 63766
ONEWEB-0688             
1 61596U 24188C   25365.13679526  .00000030  00000+0  43224-4 0  9991
2 61596  87.9080  39.3048 0003011 108.2638 251.8822 13.17649056 63763
ONEWEB-0689             
1 61597U 24188D   25365.18529163 -.00000171  00000+0 -51893-3 0  9996
2 61597  87.8836  54.4841 0001652 110.4821 249.6484 13.11418627 62433
ONEWEB-0690             
1 61598U 24188E   25365.19547162  .00000254  00000+0  68011-3 0  9997
2 61598  87.8852  54.4994 0001985  78.5371 281.5980 13.11417234 62613
ONEWEB-0691             
1 61599U 24188F   25365.11408548  .00000151  00000+0  39034-3 0  9993
2 61599  87.8851  54.4131 0002174 106.7121 253.4246 13.11417442 62450
ONEWEB-0692             
1 61600U 24188G   25365.13443197  .00000672  00000+0  18599-2 0  9997
2 61600  87.8832  54.5538 0000834 101.6585 258.4636 13.11416393 62444
ONEWEB-0693             
1 61601U 24188H   25365.14859671  .00000048  00000+0  91245-4 0  9995
2 61601  87.9084  39.3227 0002366  79.3832 280.7566 13.17650677 63755
ONEWEB-0695             
1 61602U 24188J   25365.18698700 -.00000060  00000+0 -20454-3 0  9993
2 61602  87.8840  54.5330 0001375 114.2118 245.9153 13.11418440 62448
ONEWEB-0697             
1 61603U 24188K   25365.14290935  .00000463  00000+0  12710-2 0  9998
2 61603  87.8833  54.5315 0000976  97.7154 262.4085 13.11414737 62426
ONEWEB-0698             
1 61604U 24188L   25365.19717247  .00000349  00000+0  94924-3 0  9995
2 61604  87.8837  54.5359 0001321  55.6436 304.4817 13.11416610 62455
ONEWEB-0699             
1 61605U 24188M   25365.22900234 -.00000110  00000+0 -35181-3 0  9998
2 61605  87.8804  69.7446 0001031  96.1691 263.9554 13.10377516 61317
ONEWEB-0700             
1 61606U 24188N   25365.23067588 -.00000045  00000+0 -16643-3 0  9995
2 61606  87.8815  69.6315 0001247 125.6400 234.4844 13.10378032 61307
ONEWEB-0701             
1 61607U 24188P   25365.17092780  .00000692  00000+0  19448-2 0  9992
2 61607  87.8798  69.7563 0000849  93.4982 266.6243 13.10374737 61306
ONEWEB-0702             
1 61608U 24188Q   25365.16662892 -.00000391  00000+0 -11383-2 0  9997
2 61608  87.8821  54.4250 0000769 118.0574 242.0632 13.11417316 62460
ONEWEB-0704             
1 61609U 24188R   25365.23564858  .00000134  00000+0  34690-3 0  9999
2 61609  87.8818  69.7111 0000867 126.5483 233.5724 13.10377354 61297
